{"type": "FeatureCollection", "features": [ {"type": "Feature", "properties": {"norad_id": 44622, "name": "GAOFEN-10R", "group": "resource", "lat": -39.928154120663734, "lon": -68.54464436654806, "alt_km": 629.0124262424433, "timestamp": "2025-12-03T04:52:29.299165+00:00", "meta": {"OBJECT_NAME": "GAOFEN-10R", "OBJECT_ID": "2019-066A", "EPOCH": "2025-12-02T20:57:30.959136", "MEAN_MOTION": 14.82734501, "ECCENTRICITY": 0.0008265, "INCLINATION": 98.026, "RA_OF_ASC_NODE": 284.3422, "ARG_OF_PERICENTER": 68.7397, "MEAN_ANOMALY": 291.4698, "EPHEMERIS_TYPE": 0, "CLASSIFICATION_TYPE": "U", "NORAD_CAT_ID": 44622, "ELEMENT_SET_NO": 999, "REV_AT_EPOCH": 33328, "BSTAR": 0.00031986, "MEAN_MOTION_DOT": 2.53e-05, "MEAN_MOTION_DDOT": 0}, "tle": {"line1": "1 44622U 19066A   25336.87327499  .00002530  00000+0  31986-3 0  9997", "line2": "2 44622  98.0260 284.3422 0008265  68.7397 291.4698 14.82734501333284"}}, "geometry": {"type": "Point", "coordinates": [-68.54464436654806, -39.928154120663734]}}, {"type": "Feature", "properties": {"norad_id": 44804, "name": "CARTOSAT-3", "group": "resource", "lat": -47.86657101881251, "lon": 45.23530567894697, "alt_km": 524.2151150305781, "timestamp": "2025-12-03T04:52:29.299175+00:00", "meta": {"OBJECT_NAME": "CARTOSAT-3", "OBJECT_ID": "2019-081A", "EPOCH": "2025-12-02T19:36:12.348576", "MEAN_MOTION": 15.19228615, "ECCENTRICITY": 0.001377, "INCLINATION": 97.4602, "RA_OF_ASC_NODE": 36.5251, "ARG_OF_PERICENTER": 118.2296, "MEAN_ANOMALY": 242.0331, "EPHEMERIS_TYPE": 0, "CLASSIFICATION_TYPE": "U", "NORAD_CAT_ID": 44804, "ELEMENT_SET_NO": 999, "REV_AT_EPOCH": 33365, "BSTAR": 0.0001422, "MEAN_MOTION_DOT": 2.933e-05, "MEAN_MOTION_DDOT": 0}, "tle": {"line1": "1 44804U 19081A   25336.81680959  .00002933  00000+0  14220-3 0  9992", "line2": "2 44804  97.4602  36.5251 0013770 118.2296 242.0331 15.19228615333654"}}, "geometry": {"type": "Point", "coordinates": [45.23530567894697, -47.86657101881251]}}, {"type": "Feature", "properties": {"norad_id": 44819, "name": "GAOFEN-12 01", "group": "resource", "lat": -59.567206475140374, "lon": -2.749299702383692, "alt_km": 633.5452290925305, "timestamp": "2025-12-03T04:52:29.299185+00:00", "meta": {"OBJECT_NAME": "GAOFEN-12 01", "OBJECT_ID": "2019-082A", "EPOCH": "2025-12-02T21:02:16.749600", "MEAN_MOTION": 14.80638406, "ECCENTRICITY": 0.0001296, "INCLINATION": 97.8128, "RA_OF_ASC_NODE": 343.4165, "ARG_OF_PERICENTER": 301.4447, "MEAN_ANOMALY": 58.6639, "EPHEMERIS_TYPE": 0, "CLASSIFICATION_TYPE": "U", "NORAD_CAT_ID": 44819, "ELEMENT_SET_NO": 999, "REV_AT_EPOCH": 32504, "BSTAR": 0.00010427, "MEAN_MOTION_DOT": 7.5e-06, "MEAN_MOTION_DDOT": 0}, "tle": {"line1": "1 44819U 19082A   25336.87658275  .00000750  00000+0  10427-3 0  9991", "line2": "2 44819  97.8128 343.4165 0001296 301.4447  58.6639 14.80638406325041"}}, "geometry": {"type": "Point", "coordinates": [-2.749299702383692, -59.567206475140374]}}, {"type": "Feature", "properties": {"norad_id": 44873, "name": "CSG-1", "group": "resource", "lat": -1.23564335315718, "lon": 158.8417531878423, "alt_km": 625.5393401248548, "timestamp": "2025-12-03T04:52:29.299195+00:00", "meta": {"OBJECT_NAME": "CSG-1", "OBJECT_ID": "2019-092A", "EPOCH": "2025-12-02T19:09:32.484960", "MEAN_MOTION": 14.82173342, "ECCENTRICITY": 0.0001378, "INCLINATION": 97.8806, "RA_OF_ASC_NODE": 158.272, "ARG_OF_PERICENTER": 83.3236, "MEAN_ANOMALY": 276.8134, "EPHEMERIS_TYPE": 0, "CLASSIFICATION_TYPE": "U", "NORAD_CAT_ID": 44873, "ELEMENT_SET_NO": 999, "REV_AT_EPOCH": 32238, "BSTAR": 0.00011663, "MEAN_MOTION_DOT": 8.77e-06, "MEAN_MOTION_DDOT": 0}, "tle": {"line1": "1 44873U 19092A   25336.79829265  .00000877  00000+0  11663-3 0  9995", "line2": "2 44873  97.8806 158.2720 0001378  83.3236 276.8134 14.82173342322389"}}, "geometry": {"type": "Point", "coordinates": [158.8417531878423, -1.23564335315718]}}, {"type": "Feature", "properties": {"norad_id": 46277, "name": "NEMO-HD", "group": "resource", "lat": -30.84368075477166, "lon": 40.76829834321156, "alt_km": 452.397248010363, "timestamp": "2025-12-03T04:52:29.299205+00:00", "meta": {"OBJECT_NAME": "NEMO-HD", "OBJECT_ID": "2020-061F", "EPOCH": "2025-12-02T19:39:10.712736", "MEAN_MOTION": 15.40009228, "ECCENTRICITY": 0.0002354, "INCLINATION": 97.2235, "RA_OF_ASC_NODE": 36.0452, "ARG_OF_PERICENTER": 68.752, "MEAN_ANOMALY": 291.3977, "EPHEMERIS_TYPE": 0, "CLASSIFICATION_TYPE": "U", "NORAD_CAT_ID": 46277, "ELEMENT_SET_NO": 999, "REV_AT_EPOCH": 29171, "BSTAR": 0.00033564, "MEAN_MOTION_DOT": 0.00013322, "MEAN_MOTION_DDOT": 0}, "tle": {"line1": "1 46277U 20061F   25336.81887399  .00013322  00000+0  33564-3 0  9991", "line2": "2 46277  97.2235  36.0452 0002354  68.7520 291.3977 15.40009228291717"}}, "geometry": {"type": "Point", "coordinates": [40.76829834321156, -30.84368075477166]}}, {"type": "Feature", "properties": {"norad_id": 46984, "name": "SENTINEL-6A", "group": "resource", "lat": 41.71191385600091, "lon": -154.53398674633954, "alt_km": 1337.8263160483139, "timestamp": "2025-12-03T04:52:29.299215+00:00", "meta": {"OBJECT_NAME": "SENTINEL-6A", "OBJECT_ID": "2020-086A", "EPOCH": "2025-12-02T19:15:44.885376", "MEAN_MOTION": 12.80929984, "ECCENTRICITY": 0.0007733, "INCLINATION": 66.0388, "RA_OF_ASC_NODE": 182.9477, "ARG_OF_PERICENTER": 269.134, "MEAN_ANOMALY": 90.8789, "EPHEMERIS_TYPE": 0, "CLASSIFICATION_TYPE": "U", "NORAD_CAT_ID": 46984, "ELEMENT_SET_NO": 999, "REV_AT_EPOCH": 23517, "BSTAR": 0.00011631, "MEAN_MOTION_DOT": -3.4e-07, "MEAN_MOTION_DDOT": 0}, "tle": {"line1": "1 46984U 20086A   25336.80260284 -.00000034  00000+0  11631-3 0  9998", "line2": "2 46984  66.0388 182.9477 0007733 269.1340  90.8789 12.80929984235178"}}, "geometry": {"type": "Point", "coordinates": [-154.53398674633954, 41.71191385600091]}}, {"type": "Feature", "properties": {"norad_id": 48079, "name": "GAOFEN-12 02", "group": "resource", "lat": -49.31094839932706, "lon": -19.34835733956123, "alt_km": 636.3770225032649, "timestamp": "2025-12-03T04:52:29.299226+00:00", "meta": {"OBJECT_NAME": "GAOFEN-12 02", "OBJECT_ID": "2021-026A", "EPOCH": "2025-12-02T20:59:26.735136", "MEAN_MOTION": 14.80655604, "ECCENTRICITY": 0.0003238, "INCLINATION": 97.9849, "RA_OF_ASC_NODE": 330.9289, "ARG_OF_PERICENTER": 120.9436, "MEAN_ANOMALY": 239.2094, "EPHEMERIS_TYPE": 0, "CLASSIFICATION_TYPE": "U", "NORAD_CAT_ID": 48079, "ELEMENT_SET_NO": 999, "REV_AT_EPOCH": 25271, "BSTAR": 0.0001023, "MEAN_MOTION_DOT": 7.33e-06, "MEAN_MOTION_DDOT": 0}, "tle": {"line1": "1 48079U 21026A   25336.87461499  .00000733  00000+0  10230-3 0  9997", "line2": "2 48079  97.9849 330.9289 0003238 120.9436 239.2094 14.80655604252716"}}, "geometry": {"type": "Point", "coordinates": [-19.34835733956123, -49.31094839932706]}}, {"type": "Feature", "properties": {"norad_id": 48268, "name": "PLEIADES NEO 3", "group": "resource", "lat": -17.303348580058547, "lon": 52.25833195034755, "alt_km": 629.2731491486902, "timestamp": "2025-12-03T04:52:29.299238+00:00", "meta": {"OBJECT_NAME": "PLEIADES NEO 3", "OBJECT_ID": "2021-034A", "EPOCH": "2025-12-02T20:50:58.428384", "MEAN_MOTION": 14.81667497, "ECCENTRICITY": 0.0001282, "INCLINATION": 97.8945, "RA_OF_ASC_NODE": 49.4513, "ARG_OF_PERICENTER": 88.9632, "MEAN_ANOMALY": 271.1728, "EPHEMERIS_TYPE": 0, "CLASSIFICATION_TYPE": "U", "NORAD_CAT_ID": 48268, "ELEMENT_SET_NO": 999, "REV_AT_EPOCH": 24858, "BSTAR": -1.1987e-06, "MEAN_MOTION_DOT": -6.1e-07, "MEAN_MOTION_DDOT": 0}, "tle": {"line1": "1 48268U 21034A   25336.86873181 -.00000061  00000+0 -11987-5 0  9998", "line2": "2 48268  97.8945  49.4513 0001282  88.9632 271.1728 14.81667497248585"}}, "geometry": {"type": "Point", "coordinates": [52.25833195034755, -17.303348580058547]}}, {"type": "Feature", "properties": {"norad_id": 49070, "name": "PLEIADES NEO 4", "group": "resource", "lat": 16.989444810777016, "lon": -127.79348201565293, "alt_km": 624.272023365409, "timestamp": "2025-12-03T04:52:29.299248+00:00", "meta": {"OBJECT_NAME": "PLEIADES NEO 4", "OBJECT_ID": "2021-073E", "EPOCH": "2025-12-02T20:02:20.161248", "MEAN_MOTION": 14.81671924, "ECCENTRICITY": 0.0001258, "INCLINATION": 97.8949, "RA_OF_ASC_NODE": 49.4138, "ARG_OF_PERICENTER": 97.2927, "MEAN_ANOMALY": 262.8429, "EPHEMERIS_TYPE": 0, "CLASSIFICATION_TYPE": "U", "NORAD_CAT_ID": 49070, "ELEMENT_SET_NO": 999, "REV_AT_EPOCH": 23229, "BSTAR": 3.7338e-07, "MEAN_MOTION_DOT": -4.9e-07, "MEAN_MOTION_DDOT": 0}, "tle": {"line1": "1 49070U 21073E   25336.83495557 -.00000049  00000+0  37338-6 0  9991", "line2": "2 49070  97.8949  49.4138 0001258  97.2927 262.8429 14.81671924232293"}}, "geometry": {"type": "Point", "coordinates": [-127.79348201565293, 16.989444810777016]}}, {"type": "Feature", "properties": {"norad_id": 49260, "name": "LANDSAT 9", "group": "resource", "lat": -58.05931000206005, "lon": 58.84266361617592, "alt_km": 710.2676607055828, "timestamp": "2025-12-03T04:52:29.299258+00:00", "meta": {"OBJECT_NAME": "LANDSAT 9", "OBJECT_ID": "2021-088A", "EPOCH": "2025-12-02T19:15:24.807744", "MEAN_MOTION": 14.57113378, "ECCENTRICITY": 0.0001078, "INCLINATION": 98.2104, "RA_OF_ASC_NODE": 45.0568, "ARG_OF_PERICENTER": 92.5891, "MEAN_ANOMALY": 267.5431, "EPHEMERIS_TYPE": 0, "CLASSIFICATION_TYPE": "U", "NORAD_CAT_ID": 49260, "ELEMENT_SET_NO": 999, "REV_AT_EPOCH": 22240, "BSTAR": 0.00014901, "MEAN_MOTION_DOT": 6.26e-06, "MEAN_MOTION_DDOT": 0}, "tle": {"line1": "1 49260U 21088A   25336.80237046  .00000626  00000+0  14901-3 0  9990", "line2": "2 49260  98.2104  45.0568 0001078  92.5891 267.5431 14.57113378222403"}}, "geometry": {"type": "Point", "coordinates": [58.84266361617592, -58.05931000206005]}}]}